INTELSAT 9 (IS-9)       
1 26451U 00043A   25134.82074488 -.00000001  00000+0  00000+0 0  9991
2 26451   9.5108  52.8000 0004517  15.8488 165.8657  1.00271841 40140
INTELSAT 10 (IS-10)     
1 26766U 01019A   25135.62531525  .00000005  00000+0  00000+0 0  9996
2 26766   8.1228  63.3072 0004397 343.8064 117.6894  1.00272372 41636
INTELSAT 901 (IS-901)   
1 26824U 01024A   25135.58933757 -.00000037  00000+0  00000+0 0  9991
2 26824   0.2135  93.5303 0004361 351.0093 100.2543  0.98817871 18994
INTELSAT 902 (IS-902)   
1 26900U 01039A   25132.29908979 -.00000267  00000+0  00000+0 0  9990
2 26900   5.1038  76.6755 0004277 328.5330 242.6902  1.00270893 86757
INTELSAT 904 (IS-904)   
1 27380U 02007A   25135.23018051 -.00000200  00000+0  00000+0 0  9996
2 27380   5.9225  73.9458 0003134 341.7993 230.8308  1.00271285 47773
DIRECTV 5 (TEMPO 1)     
1 27426U 02023A   25135.57484304 -.00000042  00000+0  00000+0 0  9994
2 27426   3.8596  80.2899 0003739 346.2998 263.7933  1.00272489 84135
INTELSAT 905 (IS-905)   
1 27438U 02027A   25134.92334654  .00000110  00000+0  00000+0 0  9996
2 27438   5.7503  74.5879 0002784 338.7884  14.7289  1.00270383 47363
GALAXY 3C (G-3C)        
1 27445U 02030A   25135.57419079 -.00000137  00000+0  00000+0 0  9995
2 27445   2.7055  83.0174 0003323  40.6941 221.7109  1.00271782 42502
INTELSAT 906 (IS-906)   
1 27513U 02041A   25135.60916663  .00000028  00000+0  00000+0 0  9996
2 27513   4.7921  77.8254 0003520 343.3684  95.8338  1.00270690 83043
GALAXY 23 (G-23)        
1 27854U 03034A   25135.56779875  .00000028  00000+0  00000+0 0  9994
2 27854   2.1700  84.6302 0002698 337.4480 254.9771  1.00271637 79755
GALAXY 13 (HORIZONS-1)  
1 27954U 03044A   25135.54951935  .00000148  00000+0  00000+0 0  9996
2 27954   0.3905  90.1438 0001952 320.4044 230.7943  1.00272396 42582
INTELSAT 10-02          
1 28358U 04022A   25135.42405848  .00000005  00000+0  00000+0 0  9998
2 28358   0.0512  90.9391 0001054 319.8331 334.3118  1.00271145 76563
XM-3 (RHYTHM)           
1 28626U 05008A   25135.50455380 -.00000183  00000+0  00000+0 0  9994
2 28626   0.0076 326.8778 0001385 227.5632 134.3557  1.00268454 38632
DIRECTV 8               
1 28659U 05019A   25135.56938979  .00000016  00000+0  00000+0 0  9992
2 28659   0.0134 359.0021 0003281  65.4455 255.0370  1.00271381 73198
GALAXY 28 (G-28)        
1 28702U 05022A   25135.50403251 -.00000171  00000+0  00000+0 0  9992
2 28702   2.2744  83.8908 0001194 341.7134 260.6135  1.00270743 47990
GALAXY 16 (G-16)        
1 29236U 06023A   25135.57340887 -.00000111  00000+0  00000+0 0  9993
2 29236   0.0618 113.9885 0002897 293.7655 293.2255  1.00270795 68987
DIRECTV 9S              
1 29494U 06043A   25135.57297446 -.00000098  00000+0  00000+0 0  9997
2 29494   1.3931  85.7720 0003211 326.9645 285.8936  1.00271307 47393
GALAXY 17 (G-17)        
1 31307U 07016B   25135.57618904 -.00000191  00000+0  00000+0 0  9994
2 31307   1.9644  84.9924 0001389  42.2183 228.7769  1.00271728 65816
DIRECTV 10              
1 31862U 07032A   25135.57262694 -.00000088  00000+0  00000+0 0  9994
2 31862   0.0043 338.3477 0000262  46.6682 311.8904  1.00272470 41606
INTELSAT 11 (IS-11)     
1 32253U 07044B   25135.53652578  .00000075  00000+0  00000+0 0  9997
2 32253   2.5285  83.5957 0001527  32.0569  25.9367  0.99044074 64533
HORIZONS-2              
1 32388U 07063B   25135.50698645 -.00000238  00000+0  00000+0 0  9991
2 32388   1.5745  85.5940 0002281 339.9621 276.6424  1.00270118 63825
DIRECTV 11              
1 32729U 08013A   25135.50194738 -.00000110  00000+0  00000+0 0  9999
2 32729   0.0087  46.5899 0000344 323.5688 304.8363  1.00273344 41609
GALAXY 18 (G-18)        
1 32951U 08024A   25135.56677553  .00000040  00000+0  00000+0 0  9996
2 32951   0.0427  97.9064 0003185 317.9746 258.6910  1.00272197 62103
INTELSAT 25 (IS-25)     
1 33153U 08034A   25135.51642024 -.00000208  00000+0  00000+0 0  9999
2 33153   1.6812  85.2575 0003253 334.0739 328.5697  1.00270799 61708
GALAXY 19 (G-19)        
1 33376U 08045A   25135.57375639 -.00000124  00000+0  00000+0 0  9996
2 33376   0.0520 100.2091 0002981 319.5891 283.3080  1.00270924 60915
FM-5                    
1 35493U 09034A   25135.43314700 -.00000185  00000+0  00000+0 0  9991
2 35493   0.0119 287.9680 0000164 203.7666 171.4634  1.00275661 42659
INTELSAT 14 (IS-14)     
1 36097U 09064A   25135.36992973 -.00000258  00000+0  00000+0 0  9992
2 36097   0.0119 354.3029 0002661  63.9231 263.2985  1.00270117 56615
INTELSAT 15 (IS-15)     
1 36106U 09067A   25135.39573321 -.00000170  00000+0  00000+0 0  9994
2 36106   0.0133 291.7473 0002442 127.7182  41.5270  1.00271722 37245
DIRECTV 12              
1 36131U 09075A   25135.57271382 -.00000088  00000+0  00000+0 0  9991
2 36131   0.0081  48.6739 0000566  12.0267 276.3063  1.00271680 42566
INTELSAT 16 (IS-16)     
1 36397U 10006A   25135.33864090 -.00000229  00000+0  00000+0 0  9996
2 36397   0.0233  38.5432 0002717  49.7394 190.7353  1.00270071 55664
XM-5                    
1 37185U 10053A   25135.42741289 -.00000007  00000+0  00000+0 0  9992
2 37185   0.0302 281.1735 0002623 268.2385  82.6674  1.00271405 53499
INTELSAT 17 (IS-17)     
1 37238U 10065B   25135.62888589  .00000014  00000+0  00000+0 0  9998
2 37238   0.0101 279.6204 0002722 146.5632  99.8181  1.00269959 49265
INTELSAT 28 (IS-28)     
1 37392U 11016A   25135.44072626 -.00000209  00000+0  00000+0 0  9990
2 37392   0.7767  87.8398 0004525 329.3803 303.1720  1.00272114 49298
INTELSAT 18 (IS-18)     
1 37834U 11056A   25135.55729619  .00000068  00000+0  00000+0 0  9990
2 37834   0.0157 279.8415 0002125 140.9421 193.3827  1.00271658 49823
INTELSAT 22 (IS-22)     
1 38098U 12011A   25135.60849135 -.00000044  00000+0  00000+0 0  9992
2 38098   0.0137 312.2988 0001772 102.1822 110.2544  1.00271865  3209
INTELSAT 19 (IS-19)     
1 38356U 12030A   25135.55451602 -.00000041  00000+0  00000+0 0  9999
2 38356   0.0177 319.5586 0003170  96.6750 182.9341  1.00271000 46462
INTELSAT 20 (IS-20)     
1 38740U 12043A   25135.60569263 -.00000009  00000+0  00000+0 0  9993
2 38740   0.0056 289.6059 0001826 261.9779 328.5378  1.00271494 46769
INTELSAT 21 (IS-21)     
1 38749U 12045A   25135.36732332 -.00000269  00000+0  00000+0 0  9994
2 38749   0.0287  74.1006 0002135 351.8273 241.6570  1.00270283 46534
INTELSAT 23 (IS-23)     
1 38867U 12057A   25135.43974991 -.00000269  00000+0  00000+0 0  9995
2 38867   0.0339 142.1048 0000484 322.6439 234.0248  1.00271955 45961
FM-6                    
1 39360U 13058A   25135.42723913 -.00000001  00000+0  00000+0 0  9995
2 39360   0.0138 320.1930 0001180 186.3906 124.4657  1.00271714 42071
INTELSAT 30 (IS-30)     
1 40271U 14062A   25135.36002537 -.00000135  00000+0  00000+0 0  9997
2 40271   0.0234  28.0598 0000950  32.7488 207.0844  1.00270657  2794
DIRECTV 14              
1 40333U 14078B   25135.57332198 -.00000110  00000+0  00000+0 0  9998
2 40333   0.0138 289.3129 0000078 280.5062 130.9157  1.00269777 38050
DIRECTV 15              
1 40663U 15026A   25135.57892291 -.00000087  00000+0  00000+0 0  9996
2 40663   0.0556  97.9916 0000354  37.9542 203.1496  1.00269483 36557
SKY MEXICO-1            
1 40664U 15026B   25135.33864090 -.00000219  00000+0  00000+0 0  9994
2 40664   0.0255 337.2903 0003059 103.4871 195.6838  1.00271249 36467
INTELSAT 34 (IS-34)     
1 40874U 15039A   25135.43922862 -.00000270  00000+0  00000+0 0  9991
2 40874   0.0160 296.2780 0000473  19.6260  20.1347  1.00269963 35634
INTELSAT 31 (IS-31)     
1 41581U 16035A   25135.57419079 -.00000135  00000+0  00000+0 0  9990
2 41581   0.0163 274.3598 0002035 313.0037 117.8388  1.00270639 32690
INTELSAT 36 (IS-36)     
1 41747U 16053A   25135.46381578 -.00000009  00000+0  00000+0 0  9994
2 41747   0.0144 356.1986 0001094 335.4844 137.2249  1.00270778 31966
INTELSAT 32E (IS-32E)   
1 41945U 17007B   25135.37027726 -.00000253  00000+0  00000+0 0  9997
2 41945   0.0169  40.1482 0000360 329.1385 314.1791  1.00269613 30232
INTELSAT 35E (IS-35E)   
1 42818U 17041A   25135.51642024 -.00000222  00000+0  00000+0 0  9991
2 42818   0.0137 275.1344 0002256 141.6396 328.1482  1.00270624 28827
INTELSAT 37E (IS-37E)   
1 42950U 17059A   25135.51086255 -.00000125  00000+0  00000+0 0  9997
2 42950   0.0167 298.5806 0002543 125.3140 335.5167  1.00271989 28078
AZERSPACE 2 (IS-38)     
1 43632U 18074A   25135.17361617  .00000152  00000+0  00000+0 0  9992
2 43632   0.0173 312.2497 0001681 106.1420 282.3758  1.00272428 24455
HORIZONS-3E             
1 43633U 18074B   25135.55512418 -.00000016  00000+0  00000+0 0  9992
2 43633   0.0396 148.1351 0000267 211.4117 242.8322  1.00269820 24359
AT&T T-16               
1 44333U 19034A   25135.50168675 -.00000101  00000+0  00000+0 0  9999
2 44333   0.0477  98.8670 0000460 353.4553 220.9059  1.00275291 21639
INTELSAT 39 (IS-39)     
1 44476U 19049B   25135.59532051  .00000048  00000+0  00000+0 0  9994
2 44476   0.0182 301.2497 0000337  41.2671 167.3159  1.00271337 21142
GALAXY 30 (G-30)        
1 46114U 20056C   25135.56556314  .00000052  00000+0  00000+0 0  9995
2 46114   0.0156 298.8614 0002464 121.5289 251.7497  1.00272521 17308
GALAXY 33 (G-33)        
1 54026U 22128A   25135.55985547  .00000094  00000+0  00000+0 0  9997
2 54026   0.0136 298.5960 0002129 122.9292 240.5705  1.00271689  9757
GALAXY 34 (G-34)        
1 54027U 22128B   25135.56247480  .00000074  00000+0  00000+0 0  9994
2 54027   0.0214 305.4768 0001793 114.5596 246.9895  1.00269177  9781
GALAXY 31 (G-31)        
1 54243U 22153A   25135.56763832  .00000029  00000+0  00000+0 0  9996
2 54243   0.0151 269.7468 0000875 101.6866 305.4669  1.00270773  3145
GALAXY 32 (G-32)        
1 54244U 22153B   25135.43219131 -.00000159  00000+0  00000+0 0  9996
2 54244   0.0106 347.2778 0002742  48.6797 262.0465  1.00271566  9150
GALAXY 35 (G-35)        
1 54741U 22170A   25135.57453831 -.00000147  00000+0  00000+0 0  9996
2 54741   0.0144 271.9130 0002225 148.0784 287.2925  1.00272432  8901
GALAXY 36 (G-36)        
1 54742U 22170B   25135.50403251 -.00000169  00000+0  00000+0 0  9995
2 54742   0.0135 117.5853 0002906 319.1076 249.2453  1.00268492  8781
GALAXY 37 (G-37)        
1 57493U 23112A   25135.49049478  .00000064  00000+0  00000+0 0  9996
2 57493   0.0143   7.4791 0002180  47.0780 228.4973  1.00270048  6556
